[
    {
        "Altitude(m)": 611967.2121226705,
        "Argument of Periapsis(deg)": 0.0,
        "Eccentricity": 0.0,
        "Inclination(deg)": 60.0,
        "Latitude(deg)": 59.14026218531085,
        "Longitude(deg)": 96.09206733839298,
        "Mean Anomaly(deg)": 98.18179999999998,
        "RAAN(deg)": 90.0,
        "Satellite Name": "Test1 402",
        "Satellite Number": 402,
        "Semi-Major Axis(m)": 6980739.136638005,
        "Time(s)": 0
    },
    {
        "Altitude(m)": 611934.4120366363,
        "Argument of Periapsis(deg)": 0.00010418945913296404,
        "Eccentricity": 0.0,
        "Inclination(deg)": 60.0,
        "Latitude(deg)": 58.98662424001975,
        "Longitude(deg)": 97.21531627975469,
        "Mean Anomaly(deg)": 98.80190614546183,
        "RAAN(deg)": 89.99957995086027,
        "Satellite Name": "Test1 402",
        "Satellite Number": 402,
        "Semi-Major Axis(m)": 6980739.136638005,
        "Time(s)": 10
    }
]